{
  "norad_id": 52453,
  "name": "STARLINK-3872",
  "history": [
    {
      "epoch": "2026-03-28T21:56:25.771488",
      "apogee_km": 540.6433096430655,
      "perigee_km": 538.8435538699396,
      "latitude_deg": -7.4291920048179705,
      "longitude_deg": -126.93803167995065,
      "semi_major_axis_km": 6917.880431756503,
      "eccentricity": 0.00013008,
      "inclination_deg": 53.2193,
      "raan_deg": 342.8221,
      "arg_perigee_deg": 81.907,
      "mean_anomaly_deg": 278.2069,
      "mean_motion_rev_day": 15.08839986
    },
    {
      "epoch": "2026-03-28T23:31:48.828864",
      "apogee_km": 540.6398941936504,
      "perigee_km": 538.8329456563661,
      "latitude_deg": 42.333936408521105,
      "longitude_deg": -120.57907903986052,
      "semi_major_axis_km": 6917.8734199250075,
      "eccentricity": 0.0001306,
      "inclination_deg": 53.2192,
      "raan_deg": 342.5247,
      "arg_perigee_deg": 83.5337,
      "mean_anomaly_deg": 276.5804,
      "mean_motion_rev_day": 15.0884228
    }
  ]
}